#aV2020 11 20  0  0  0.00000000     288 DD+AD WGS84 FIT  NGA
## 2132 432000.00000000   300.00000000 59173 0.0000000000000
+   31     1  2  3  4  5  6  7  8  9 10 11 12 13 15 16 17 18
+         19 20 21 22 23 24 25 26 27 28 29 30 31 32  0  0  0
+          0  0  0  0  0  0  0  0  0  0  0  0  0  0  0  0  0
+          0  0  0  0  0  0  0  0  0  0  0  0  0  0  0  0  0
+          0  0  0  0  0  0  0  0  0  0  0  0  0  0  0  0  0
++         2  2  2  2  2  2  2  2  2  2  2  2  2  2  2  2  2
++         2  2  2  2  2  2  2  2  2  2  2  2  2  2  0  0  0
++         0  0  0  0  0  0  0  0  0  0  0  0  0  0  0  0  0
++         0  0  0  0  0  0  0  0  0  0  0  0  0  0  0  0  0
++         0  0  0  0  0  0  0  0  0  0  0  0  0  0  0  0  0
%c cc cc ccc ccc cccc cccc cccc cccc ccccc ccccc ccccc ccccc
%c cc cc ccc ccc cccc cccc cccc cccc ccccc ccccc ccccc ccccc
%f  0.0000000  0.000000000  0.00000000000  0.000000000000000
%f  0.0000000  0.000000000  0.00000000000  0.000000000000000
%i    0    0    0    0      0      0      0      0         0
%i    0    0    0    0      0      0      0      0         0
/*      NGA, ST. LOUIS,MO.                                  
/*   EPHEMERIS COMPUTED FROM 2 DAYS OF DATA                 
/*   EPOCHA v5 SMOOTHER                                     
/*   G1762 IERS2010 SATAF SATAPC                            
*  2020 11 20  8 10  0.00000000
P  1  20715.716694  12454.967312  11141.855705    805.596285                    
V  1   8191.138819  11915.603742 -27632.373909     -0.040947                    
P  2 -12753.851155 -21609.615942   9369.870507   -544.757233                    
V  2   9522.513763   5971.175659  28729.415154     -0.046711                    
P  3  14981.215333   2390.911093  21713.096909     -8.677478                    
V  3  -8499.907747  26421.127960   3039.321750     -0.100548                    
P  4  25076.503758   1851.855724   8625.970435   -157.026684                    
V  4 -10348.905276   4385.968756  29108.220086     -0.035645                    
P  5  -4914.818066 -21268.844854 -15158.328310    -26.338819                    
V  5   7558.661104 -17646.671504  22718.225805     -0.009493                    
P  6    467.809192 -18597.368858  19000.019131     -1.712518                    
V  6  16717.773863  17201.497764  16512.005708     -0.014217                    
P  7  16615.208801  -2892.341155 -20301.081884   -417.961026                    
V  7  16717.399795  20487.072734  10115.429087     -0.076247                    
P  8  19737.373227   7180.332908 -16411.442955    -55.733415                    
V  8 -19908.503310   5989.803795 -21035.174659     -0.013008                    
P  9  25250.148263  -7749.903847  -2951.984741   -291.762234                    
V  9   4243.304476   2165.534008  31265.504784     -0.046365                    
P 10 -11669.016058  23007.669389  -5610.184263   -508.977110                    
V 10   -339.966172  -7790.537079 -30988.649260     -0.090898                    
P 11  23385.411714  11815.955450  -3390.497742   -103.656564                    
V 11  -5205.973947   2826.104203 -30506.143164      0.105367                    
P 12 -13389.949891  -6266.463367  21831.620527     37.890004                    
V 12  10793.933778 -26098.586337   -714.751174     -0.051701                    
P 13 -10845.849748 -13316.609828 -20425.948696     66.734369                    
V 13  25451.871121  -2726.234508 -11702.151267      0.038573                    
P 15 -21106.967490  -5558.704282 -15730.684586   -188.773964                    
V 15  17663.465615  -8100.845676 -20949.380217      0.025928                    
P 16   2736.807360  20915.031326 -16071.268283   -239.002433                    
V 16  -9720.939602  17745.875514  22183.513827     -0.053319                    
P 17  13589.592498 -14238.553100  18251.231278    356.335291                    
V 17  22193.259762  -2070.341102 -18611.531262      0.051323                    
P 18 -15123.572680   4902.248844 -21293.456265    323.571724                    
V 18 -17000.644683 -20972.454587   7194.127529      0.046235                    
P 19   6952.584559 -14620.875678  20754.198221    -75.922543                    
V 19  26917.610244  -1853.890527 -10259.142430      0.050145                    
P 20 -14883.806097  14739.406658 -16246.658104    525.945532                    
V 20   1299.556950 -20787.586786 -20398.558771     -0.001620                    
P 21  20807.526118  16528.581206   3900.231776     70.009952                    
V 21   1065.391038   4633.209493 -30896.172455      0.036676                    
P 22  12984.218420  11243.812701  20488.540644   -727.371958                    
V 22  -6795.685048  24755.493754  -9212.796800      0.054633                    
P 23 -15512.658474  15815.758348 -14659.475744    102.343137                    
V 23   3445.686234 -18366.945755 -23537.104570      0.042620                    
P 24 -21583.614600 -14056.899108   7036.668637      6.197432                    
V 24  -4319.366610  -8665.198009 -29226.520190     -0.004754                    
P 25 -16492.763012   8051.057477  18858.537039     25.317926                    
V 25   6278.389544 -23775.411281  15707.630507      0.066480                    
P 26  -3965.214255  25716.492163  -4648.629570      1.817504                    
V 26  -4981.516473   4712.936603  30801.745020      0.060118                    
P 27   8141.292903  13283.676874 -21703.665090    -17.572588                    
V 27 -26499.005245   5721.889502  -6143.776222     -0.083030                    
P 28  12542.676728 -23222.386772  -3128.351276    653.275152                    
V 28    181.905174   5173.802285 -31635.775177     -0.046505                    
P 29 -26221.990530   4235.916123  -1175.575181   -240.116252                    
V 29  -1692.465726  -1803.140640  32203.182934     -0.076436                    
P 30   9571.410167 -12761.596519 -21169.650214   -338.701808                    
V 30  17830.624688  20416.338590  -4451.574960     -0.065602                    
P 31    823.481973  19889.025914  17285.399861    -82.579586                    
V 31 -15913.454449 -15711.474229  19225.004367     -0.023732                    
P 32 -12895.311605  15317.025442  17456.128332      1.975742                    
V 32 -21970.835988   2791.327979 -18929.419759      0.031439                    
EOF
